ONEWEB-0156             
1 48052U 21025L   24188.45748359  .00000186  00000+0  47452-3 0  9996
2 48052  87.8930 101.6798 0001971  79.0599 281.0752 13.13468303160289
ONEWEB-0161             
1 48053U 21025M   24188.20196892 -.00000020  00000+0 -90610-4 0  9993
2 48053  87.8931 101.7381 0001780  75.0137 285.1189 13.13470119160188
ONEWEB-0158             
1 48054U 21025N   24188.46860146 -.00000113  00000+0 -34352-3 0  9995
2 48054  87.8930 101.6754 0002073  80.8868 279.2495 13.13469352160330
ONEWEB-0157             
1 48055U 21025P   24188.49238872 -.00000130  00000+0 -39161-3 0  9996
2 48055  87.8928 101.6853 0001803  81.5867 278.5466 13.13468484160284
ONEWEB-0162             
1 48056U 21025Q   24187.77029979 -.00000098  00000+0 -30348-3 0  9994
2 48056  87.8928 101.8248 0001962  79.7274 280.4076 13.13470359160151
ONEWEB-0155             
1 48057U 21025R   24187.79093663 -.00000298  00000+0 -85001-3 0  9996
2 48057  87.8929 101.8309 0001824  72.3097 287.8231 13.13470419160296
ONEWEB-0149             
1 48058U 21025S   24188.49715527 -.00000352  00000+0 -99883-3 0  9999
2 48058  87.8926 101.6867 0001924  85.2439 274.8910 13.13470354160204
ONEWEB-0148             
1 48059U 21025T   24188.46225656  .00001285  00000+0  34834-2 0  9994
2 48059  87.8932 101.7047 0001751  98.1646 261.9682 13.13462667160317
ONEWEB-0160             
1 48060U 21025U   24188.47812174 -.00000236  00000+0 -67991-3 0  9992
2 48060  87.8933 101.6974 0002920  78.1371 282.0085 13.13470301160269
ONEWEB-0163             
1 48061U 21025V   24188.31147449 -.00000006  00000+0 -50865-4 0  9990
2 48061  87.8930 101.7227 0001666  77.9381 282.1935 13.13468453160375
ONEWEB-0159             
1 48062U 21025W   24187.76712335  .00000108  00000+0  26050-3 0  9990
2 48062  87.8928 101.8145 0001780  81.8823 278.2508 13.13468189160216
ONEWEB-0164             
1 48063U 21025X   24188.51145355  .00000315  00000+0  82676-3 0  9993
2 48063  87.8928 101.6761 0002018  74.9123 285.2229 13.13471315160303
ONEWEB-0167             
1 48064U 21025Y   24187.77901973 -.00000108  00000+0 -33193-3 0  9999
2 48064  87.8931 101.8343 0001780  78.8103 281.3226 13.13467681160183
ONEWEB-0166             
1 48065U 21025Z   24188.48604067 -.00000242  00000+0 -69751-3 0  9991
2 48065  87.8924 101.6758 0001923  84.4461 275.6888 13.13468597160359
ONEWEB-0151             
1 48066U 21025AA  24187.80204652 -.00000162  00000+0 -47965-3 0  9997
2 48066  87.8928 101.8261 0002011  73.6168 286.5182 13.13471853160209
ONEWEB-0170             
1 48067U 21025AB  24188.49558031 -.00000084  00000+0 -26619-3 0  9993
2 48067  87.8928 101.6903 0002440  66.9234 293.2152 13.13470260160254
ONEWEB-0168             
1 48068U 21025AC  24187.79568212 -.00000268  00000+0 -76877-3 0  9993
2 48068  87.8932 101.7999 0001902  78.3287 281.8056 13.13468577160178
ONEWEB-0173             
1 48069U 21025AD  24188.47334906 -.00000163  00000+0 -48113-3 0  9997
2 48069  87.8931 101.6750 0001604  67.1476 292.9823 13.13469435160503
ONEWEB-0171             
1 48070U 21025AE  24188.50986093  .00000232  00000+0  60012-3 0  9990
2 48070  87.8931 101.7035 0001922  74.3210 285.8131 13.13469677160322
ONEWEB-0172             
1 48071U 21025AF  24187.80361556 -.00000405  00000+0 -11448-2 0  9996
2 48071  87.8931 101.8105 0001886  72.7215 287.4121 13.13469992161124
ONEWEB-0174             
1 48072U 21025AG  24188.47176281 -.00000133  00000+0 -39876-3 0  9994
2 48072  87.8932 101.6918 0001923  81.6689 278.4658 13.13468245160531
ONEWEB-0175             
1 48073U 21025AH  24188.19563091  .00000108  00000+0  26087-3 0  9993
2 48073  87.8925 101.7342 0002132  68.1440 291.9915 13.13470091160150
ONEWEB-0177             
1 48074U 21025AJ  24188.51305187  .00000352  00000+0  92872-3 0  9996
2 48074  87.8926 101.6792 0001519  80.2610 279.8691 13.13473560160387
ONEWEB-0178             
1 48075U 21025AK  24187.84502565  .00000172  00000+0  43543-3 0  9992
2 48075  87.8936 101.8315 0001769  77.4246 282.7081 13.13468578160347
ONEWEB-0108             
1 48076U 21025AL  24187.80521843 -.00000106  00000+0 -32503-3 0  9992
2 48076  87.8926 101.8175 0002101  83.1649 276.9719 13.13470029160261
ONEWEB-0169             
1 48077U 21025AM  24188.52255195  .00000135  00000+0  33603-3 0  9999
2 48077  87.8929 101.6852 0002090  83.2221 276.9146 13.13469563160253
ONEWEB-0176             
1 48210U 21031A   24188.16274968 -.00000147  00000+0 -43128-3 0  9992
2 48210  87.8954  71.1524 0001859  77.8202 282.3136 13.14501334156199
ONEWEB-0184             
1 48211U 21031B   24187.90744475  .00000206  00000+0  52183-3 0  9994
2 48211  87.8952  71.1865 0002153  49.9847 310.1471 13.14501422154849
ONEWEB-0179             
1 48212U 21031C   24187.95343493  .00000045  00000+0  86368-4 0  9999
2 48212  87.8953  71.1808 0001731  79.1675 280.9649 13.14502209154893
ONEWEB-0180             
1 48213U 21031D   24188.13896394  .00000217  00000+0  55107-3 0  9991
2 48213  87.8952  71.1415 0001589  78.3478 281.7830 13.14503136154802
ONEWEB-0218             
1 48214U 21031E   24188.16117525 -.00000083  00000+0 -25870-3 0  9994
2 48214  87.8952  71.1386 0001825  43.4445 316.6829 13.14502919154961
ONEWEB-0209             
1 48215U 21031F   24188.37842922  .00000051  00000+0  10226-3 0  9996
2 48215  87.8954  71.1298 0001637  80.1323 279.9992 13.14502895154998
ONEWEB-0198             
1 48216U 21031G   24187.90586577  .00000259  00000+0  66487-3 0  9996
2 48216  87.8956  71.2287 0001602  66.8464 293.2835 13.14502760155042
ONEWEB-0189             
1 48217U 21031H   24187.91854112  .00000084  00000+0  19283-3 0  9999
2 48217  87.8953  71.2016 0001519  65.8981 294.2307 13.14501666154789
ONEWEB-0196             
1 48218U 21031J   24188.42918008  .00000035  00000+0  58663-4 0  9994
2 48218  87.8953  71.1039 0001817  76.6542 283.4791 13.14503430154843
ONEWEB-0183             
1 48219U 21031K   24188.17546240 -.00000103  00000+0 -31312-3 0  9991
2 48219  87.8953  71.1706 0001764  83.3494 276.7837 13.14503468154912
ONEWEB-0185             
1 48220U 21031L   24187.66878544  .00000231  00000+0  58914-3 0  9998
2 48220  87.8954  71.2440 0001677  82.7672 277.3648 13.14501741154778
ONEWEB-0187             
1 48221U 21031M   24187.94312334 -.00000094  00000+0 -28812-3 0  9993
2 48221  87.8954  71.2219 0001735  81.5949 278.5377 13.14501945154826
ONEWEB-0192             
1 48222U 21031N   24188.15168662 -.00000025  00000+0 -10255-3 0  9997
2 48222  87.8956  71.1776 0001819  74.8740 285.2591 13.14503408154776
ONEWEB-0219             
1 48223U 21031P   24187.90268995  .00000294  00000+0  75761-3 0  9999
2 48223  87.8956  71.2016 0001651  80.1190 280.0126 13.14501687154930
ONEWEB-0202             
1 48224U 21031Q   24188.18813054  .00000087  00000+0  20126-3 0  9998
2 48224  87.8953  71.1635 0001513  50.8220 309.3044 13.14502463154969
ONEWEB-0204             
1 48225U 21031R   24188.37445813  .00000104  00000+0  24511-3 0  9996
2 48225  87.8953  71.1387 0002019  90.3272 269.8089 13.14501449154885
ONEWEB-0205             
1 48226U 21031S   24187.74094093  .00000266  00000+0  68388-3 0  9996
2 48226  87.8953  71.2360 0001605  80.1814 279.9497 13.14501294154802
ONEWEB-0206             
1 48227U 21031T   24188.17068672 -.00000164  00000+0 -47781-3 0  9992
2 48227  87.8950  71.1391 0001646  83.4564 276.6753 13.14502402154829
ONEWEB-0182             
1 48228U 21031U   24188.39427543 -.00000199  00000+0 -57041-3 0  9991
2 48228  87.8955  71.1224 0001901  83.8911 276.2435 13.14501282155069
ONEWEB-0186             
1 48229U 21031V   24188.17703478 -.00000083  00000+0 -25758-3 0  9994
2 48229  87.8954  71.1297 0001808  77.3612 282.7720 13.14502726154984
ONEWEB-0181             
1 48230U 21031W   24188.38317714 -.00000031  00000+0 -11840-3 0  9993
2 48230  87.8955  71.1584 0001791  74.1973 285.9354 13.14501327154863
ONEWEB-0188             
1 48231U 21031X   24187.96454014  .00000098  00000+0  22993-3 0  9994
2 48231  87.8952  71.2373 0001755  79.6263 280.5065 13.14502730154702
ONEWEB-0220             
1 48232U 21031Y   24188.15640788 -.00000076  00000+0 -24065-3 0  9992
2 48232  87.8948  71.1625 0001481  83.2881 276.8417 13.14501300154992
ONEWEB-0165             
1 48233U 21031Z   24188.41330203  .00000005  00000+0 -19708-4 0  9990
2 48233  87.8954  71.1291 0001666  76.8909 283.2406 13.14501037154989
ONEWEB-0199             
1 48234U 21031AA  24188.16910486 -.00000159  00000+0 -46210-3 0  9998
2 48234  87.8953  71.1469 0002087  77.7279 282.4084 13.14502495154852
ONEWEB-0203             
1 48235U 21031AB  24188.38793455 -.00000113  00000+0 -34022-3 0  9996
2 48235  87.8954  71.1050 0002174  68.5612 291.5750 13.14501452154893
ONEWEB-0197             
1 48236U 21031AC  24188.21112566  .00000222  00000+0  56445-3 0  9999
2 48236  87.8955  71.1490 0001947  89.8666 270.2687 13.14501747154783
ONEWEB-0194             
1 48237U 21031AD  24188.18972229  .00000149  00000+0  36872-3 0  9996
2 48237  87.8953  71.1463 0002092  75.2055 284.9307 13.14502353154959
ONEWEB-0193             
1 48238U 21031AE  24188.20557445  .00000303  00000+0  78371-3 0  9991
2 48238  87.8955  71.1514 0001834  74.5074 285.6258 13.14501950154905
ONEWEB-0191             
1 48239U 21031AF  24187.91220158  .00000149  00000+0  36811-3 0  9998
2 48239  87.8953  71.1930 0001841  75.4785 284.6549 13.14501236154722
ONEWEB-0195             
1 48240U 21031AG  24187.66086923  .00000208  00000+0  52592-3 0  9992
2 48240  87.8952  71.2422 0001496  69.1894 290.9396 13.14502000154671
ONEWEB-0201             
1 48241U 21031AH  24187.72586313 -.00000249  00000+0 -70587-3 0  9999
2 48241  87.8954  71.2643 0001691  77.4568 282.6750 13.14502347154919
ONEWEB-0207             
1 48242U 21031AJ  24187.93361591 -.00000136  00000+0 -40184-3 0  9997
2 48242  87.8953  71.1884 0001740  86.8408 273.2921 13.14502335154853
